GEOSCAN-3 (RS92S3)
1 64893U 25155T   26193.60288051  .00011996  00000-0  34131-3 0  9990
2 64893  97.4543 163.7933 0008644  94.1373 266.0859 15.36249157 84758
INNOSAT3 (RS92S0)
1 64894U 25155U   26193.57579763  .00027964  00000-0  57946-3 0  9991
2 64894  97.4487 165.7156 0008338  96.8562 263.3636 15.45679610 84882
KNACKSAT-2
1 67683U 98067XZ  26193.44423869  .00033729  00000-0  37969-3 0  9992
2 67683  51.6258 167.2182 0008153 318.8485  41.1893 15.62203060 24221
