OBJECT_NAME,OBJECT_ID,EPOCH,MEAN_MOTION,ECCENTRICITY,INCLINATION,RA_OF_ASC_NODE,ARG_OF_PERICENTER,MEAN_ANOMALY,EPHEMERIS_TYPE,CLASSIFICATION_TYPE,NORAD_CAT_ID,ELEMENT_SET_NO,REV_AT_EPOCH,BSTAR,MEAN_MOTION_DOT,MEAN_MOTION_DDOT
GEOSCAN 3 (RS92S3),2025-155T,2026-07-12T14:28:08.876064,15.36249157,.00086441,97.4543,163.7933,94.1373,266.0859,0,U,64893,999,8475,.34131329E-3,.11996E-3,0
INNOSAT 3 (RS92S0),2025-155U,2026-07-12T13:49:08.915232,15.45679610,.00083384,97.4487,165.7156,96.8562,263.3636,0,U,64894,999,8488,.57946228E-3,.27964E-3,0
KNACKSAT-2,1998-067XZ,2026-07-12T10:39:42.222816,15.62203060,.00081528,51.6258,167.2182,318.8485,41.1893,0,U,67683,999,2422,.37969135E-3,.33729E-3,0
